{
  "type": "FeatureCollection",
  "features": [
    {
      "type": "Feature",
      "properties": {
        "norad_id": 31307,
        "name": "GALAXY 17 (G-17)",
        "group": "intelsat",
        "lat": 1.916751027845528,
        "lon": -149.04136933867554,
        "alt_km": 35763.76504353563,
        "timestamp": "2025-12-05T14:45:14.981005+00:00",
        "meta_object_name": "GALAXY 17 (G-17)",
        "meta_object_id": "2007-016B",
        "meta_epoch": "2025-12-04T13:19:21.929952",
        "meta_mean_motion": 1.00270292,
        "meta_eccentricity": 0.0006117,
        "meta_inclination": 2.478,
        "meta_ra_of_asc_node": 82.3782,
        "meta_arg_of_pericenter": 157.9017,
        "meta_mean_anomaly": 308.189,
        "meta_ephemeris_type": 0,
        "meta_classification_type": "U",
        "meta_norad_cat_id": 31307,
        "meta_element_set_no": 999,
        "meta_rev_at_epoch": 6785,
        "meta_bstar": 0,
        "meta_mean_motion_dot": -1.93e-06,
        "meta_mean_motion_ddot": 0,
        "tle_line1": "1 31307U 07016B   25338.55511493 -.00000193  00000+0  00000+0 0  9994",
        "tle_line2": "2 31307   2.4780  82.3782 0006117 157.9017 308.1890  1.00270292 67850"
      },
      "geometry": {
        "type": "Point",
        "coordinates": [
          -149.04136933867554,
          1.916751027845528
        ]
      }
    },
    {
      "type": "Feature",
      "properties": {
        "norad_id": 31862,
        "name": "DIRECTV 10",
        "group": "intelsat",
        "lat": 0.001336249492324577,
        "lon": -166.81811165211025,
        "alt_km": 35784.04802415489,
        "timestamp": "2025-12-05T14:45:14.981022+00:00",
        "meta_object_name": "DIRECTV 10",
        "meta_object_id": "2007-032A",
        "meta_epoch": "2025-12-04T13:14:14.921376",
        "meta_mean_motion": 1.00273825,
        "meta_eccentricity": 3.87e-05,
        "meta_inclination": 0.0007,
        "meta_ra_of_asc_node": 238.2855,
        "meta_arg_of_pericenter": 340.2831,
        "meta_mean_anomaly": 310.8251,
        "meta_ephemeris_type": 0,
        "meta_classification_type": "U",
        "meta_norad_cat_id": 31862,
        "meta_element_set_no": 999,
        "meta_rev_at_epoch": 4364,
        "meta_bstar": 0,
        "meta_mean_motion_dot": -8.9e-07,
        "meta_mean_motion_ddot": 0,
        "tle_line1": "1 31862U 07032A   25338.55156159 -.00000089  00000+0  00000+0 0  9996",
        "tle_line2": "2 31862   0.0007 238.2855 0000387 340.2831 310.8251  1.00273825 43646"
      },
      "geometry": {
        "type": "Point",
        "coordinates": [
          -166.81811165211025,
          0.001336249492324577
        ]
      }
    },
    {
      "type": "Feature",
      "properties": {
        "norad_id": 32253,
        "name": "INTELSAT 11 (IS-11)",
        "group": "intelsat",
        "lat": 2.8226579207203595,
        "lon": -167.01829451736336,
        "alt_km": 36107.09081921926,
        "timestamp": "2025-12-05T14:45:14.981035+00:00",
        "meta_object_name": "INTELSAT 11 (IS-11)",
        "meta_object_id": "2007-044B",
        "meta_epoch": "2025-12-04T13:15:29.800800",
        "meta_mean_motion": 0.99047143,
        "meta_eccentricity": 0.0009295,
        "meta_inclination": 3.0574,
        "meta_ra_of_asc_node": 81.0671,
        "meta_arg_of_pericenter": 161.8583,
        "meta_mean_anomaly": 291.3189,
        "meta_ephemeris_type": 0,
        "meta_classification_type": "U",
        "meta_norad_cat_id": 32253,
        "meta_element_set_no": 999,
        "meta_rev_at_epoch": 6652,
        "meta_bstar": 0,
        "meta_mean_motion_dot": 2.5e-07,
        "meta_mean_motion_ddot": 0,
        "tle_line1": "1 32253U 07044B   25338.55242825  .00000025  00000+0  00000+0 0  9999",
        "tle_line2": "2 32253   3.0574  81.0671 0009295 161.8583 291.3189  0.99047143 66525"
      },
      "geometry": {
        "type": "Point",
        "coordinates": [
          -167.01829451736336,
          2.8226579207203595
        ]
      }
    },
    {
      "type": "Feature",
      "properties": {
        "norad_id": 32388,
        "name": "HORIZONS-2",
        "group": "intelsat",
        "lat": 1.3501544356693034,
        "lon": -137.83149222088164,
        "alt_km": 35770.40169295043,
        "timestamp": "2025-12-05T14:45:14.981046+00:00",
        "meta_object_name": "HORIZONS-2",
        "meta_object_id": "2007-063B",
        "meta_epoch": "2025-12-04T13:22:29.131104",
        "meta_mean_motion": 1.00271685,
        "meta_eccentricity": 0.0005031,
        "meta_inclination": 2.0989,
        "meta_ra_of_asc_node": 83.0494,
        "meta_arg_of_pericenter": 182.0483,
        "meta_mean_anomaly": 295.3707,
        "meta_ephemeris_type": 0,
        "meta_classification_type": "U",
        "meta_norad_cat_id": 32388,
        "meta_element_set_no": 999,
        "meta_rev_at_epoch": 6586,
        "meta_bstar": 0,
        "meta_mean_motion_dot": -2.4e-06,
        "meta_mean_motion_ddot": 0,
        "tle_line1": "1 32388U 07063B   25338.55728161 -.00000240  00000+0  00000+0 0  9991",
        "tle_line2": "2 32388   2.0989  83.0494 0005031 182.0483 295.3707  1.00271685 65865"
      },
      "geometry": {
        "type": "Point",
        "coordinates": [
          -137.83149222088164,
          1.3501544356693034
        ]
      }
    },
    {
      "type": "Feature",
      "properties": {
        "norad_id": 32729,
        "name": "DIRECTV 11",
        "group": "intelsat",
        "lat": 0.0007482405222997775,
        "lon": -163.22906417282042,
        "alt_km": 35785.36168511771,
        "timestamp": "2025-12-05T14:45:14.981058+00:00",
        "meta_object_name": "DIRECTV 11",
        "meta_object_id": "2008-013A",
        "meta_epoch": "2025-12-04T09:49:46.066080",
        "meta_mean_motion": 1.00271822,
        "meta_eccentricity": 2.82e-05,
        "meta_inclination": 0.0106,
        "meta_ra_of_asc_node": 92.3257,
        "meta_arg_of_pericenter": 156.2768,
        "meta_mean_anomaly": 233.1284,
        "meta_ephemeris_type": 0,
        "meta_classification_type": "U",
        "meta_norad_cat_id": 32729,
        "meta_element_set_no": 999,
        "meta_rev_at_epoch": 4364,
        "meta_bstar": 0,
        "meta_mean_motion_dot": -1.11e-06,
        "meta_mean_motion_ddot": 0,
        "tle_line1": "1 32729U 08013A   25338.40956095 -.00000111  00000+0  00000+0 0  9996",
        "tle_line2": "2 32729   0.0106  92.3257 0000282 156.2768 233.1284  1.00271822 43640"
      },
      "geometry": {
        "type": "Point",
        "coordinates": [
          -163.22906417282042,
          0.0007482405222997775
        ]
      }
    },
    {
      "type": "Feature",
      "properties": {
        "norad_id": 32951,
        "name": "GALAXY 18 (G-18)",
        "group": "intelsat",
        "lat": -0.003178074538006369,
        "lon": 172.9189939824337,
        "alt_km": 35784.81028868902,
        "timestamp": "2025-12-05T14:45:14.981070+00:00",
        "meta_object_name": "GALAXY 18 (G-18)",
        "meta_object_id": "2008-024A",
        "meta_epoch": "2025-12-04T14:02:38.764032",
        "meta_mean_motion": 1.00268646,
        "meta_eccentricity": 0.000325,
        "meta_inclination": 0.0161,
        "meta_ra_of_asc_node": 1.1901,
        "meta_arg_of_pericenter": 253.0124,
        "meta_mean_anomaly": 267.1148,
        "meta_ephemeris_type": 0,
        "meta_classification_type": "U",
        "meta_norad_cat_id": 32951,
        "meta_element_set_no": 999,
        "meta_rev_at_epoch": 4390,
        "meta_bstar": 0,
        "meta_mean_motion_dot": 4e-07,
        "meta_mean_motion_ddot": 0,
        "tle_line1": "1 32951U 08024A   25338.58517088  .00000040  00000+0  00000+0 0  9999",
        "tle_line2": "2 32951   0.0161   1.1901 0003250 253.0124 267.1148  1.00268646 43907"
      },
      "geometry": {
        "type": "Point",
        "coordinates": [
          172.9189939824337,
          -0.003178074538006369
        ]
      }
    },
    {
      "type": "Feature",
      "properties": {
        "norad_id": 33153,
        "name": "INTELSAT 25 (IS-25)",
        "group": "intelsat",
        "lat": -0.09313120575301727,
        "lon": -95.51989581732032,
        "alt_km": 35763.52437943261,
        "timestamp": "2025-12-05T14:45:14.981082+00:00",
        "meta_object_name": "INTELSAT 25 (IS-25)",
        "meta_object_id": "2008-034A",
        "meta_epoch": "2025-12-04T11:51:49.343904",
        "meta_mean_motion": 1.0027113,
        "meta_eccentricity": 0.0005398,
        "meta_inclination": 2.205,
        "meta_ra_of_asc_node": 82.7411,
        "meta_arg_of_pericenter": 178.5676,
        "meta_mean_anomaly": 318.723,
        "meta_ephemeris_type": 0,
        "meta_classification_type": "U",
        "meta_norad_cat_id": 33153,
        "meta_element_set_no": 999,
        "meta_rev_at_epoch": 6374,
        "meta_bstar": 0,
        "meta_mean_motion_dot": -2.1e-06,
        "meta_mean_motion_ddot": 0,
        "tle_line1": "1 33153U 08034A   25338.49432111 -.00000210  00000+0  00000+0 0  9998",
        "tle_line2": "2 33153   2.2050  82.7411 0005398 178.5676 318.7230  1.00271130 63743"
      },
      "geometry": {
        "type": "Point",
        "coordinates": [
          -95.51989581732032,
          -0.09313120575301727
        ]
      }
    }
  ]
}